IRIDIUM 921 [-]         
1 24873U 97034E   23229.82260971  .00011876  00000+0  48602-3 0  9995
2 24873  86.3829  76.6986 0004982 353.8988   6.2196 15.24189903428900
IRIDIUM 26 [-]          
1 24903U 97043A   23229.71477448  .00000507  00000+0  16804-3 0  9994
2 24903  86.3960  31.4607 0002248  95.7632 264.3821 14.35963039361101
IRIDIUM 22 [-]          
1 24907U 97043E   23229.46750768  .00000486  00000+0  16443-3 0  9994
2 24907  86.3957  34.5605 0002098  91.0841 269.0596 14.34874620360697
DUMMY MASS 1 [-]        
1 24925U 97048A   23228.13753314  .00000456  00000+0  49198-4 0  9993
2 24925  86.3305  85.3496 0007486  22.3349 337.8200 14.85788953405697
DUMMY MASS 2 [-]        
1 24926U 97048B   23229.87614453  .00000465  00000+0  50610-4 0  9997
2 24926  86.3303  86.0371 0008430  24.6013 335.5611 14.85552913405741
IRIDIUM 29 [-]          
1 24944U 97051A   23229.07919494  .00000467  00000+0  15627-3 0  9996
2 24944  86.3912  64.7485 0001886  87.3021 272.8391 14.35338847357331
IRIDIUM 33 [-]          
1 24946U 97051C   23229.45910650  .00000310  00000+0  10370-3 0  9992
2 24946  86.3828  63.8721 0009990 100.6481 259.5840 14.34086727356746
IRIDIUM 28 [-]          
1 24948U 97051E   23228.79526758  .00000436  00000+0  14270-3 0  9994
2 24948  86.3919  62.7667 0002467  93.6360 266.5119 14.36256226357658
